[{"OBJECT_NAME":"ONEWEB-0653","OBJECT_ID":"2023-029V","EPOCH":"2026-03-09T16:01:26.670720","MEAN_MOTION":13.14502599,"ECCENTRICITY":0.00014233,"INCLINATION":87.8986,"RA_OF_ASC_NODE":309.5672,"ARG_OF_PERICENTER":80.0629,"MEAN_ANOMALY":280.0662,"EPHEMERIS_TYPE":0,"CLASSIFICATION_TYPE":"U","NORAD_CAT_ID":55815,"ELEMENT_SET_NO":999,"REV_AT_EPOCH":14632,"BSTAR":0.00035798548,"MEAN_MOTION_DOT":1.46e-6,"MEAN_MOTION_DDOT":0},{"OBJECT_NAME":"DELTA 1 DEB","OBJECT_ID":"1975-052LB","EPOCH":"2026-03-09T16:32:27.096864","MEAN_MOTION":13.27110979,"ECCENTRICITY":0.00909062,"INCLINATION":99.6693,"RA_OF_ASC_NODE":82.8398,"ARG_OF_PERICENTER":58.6017,"MEAN_ANOMALY":5.0092,"EPHEMERIS_TYPE":0,"CLASSIFICATION_TYPE":"U","NORAD_CAT_ID":26847,"ELEMENT_SET_NO":999,"REV_AT_EPOCH":39970,"BSTAR":8.7685065e-5,"MEAN_MOTION_DOT":0,"MEAN_MOTION_DDOT":0}]
